1 00005U 58002B   22230.52632868  .00000218  00000-0  26532-3 0  9991
2 00005  34.2570 308.1378 1847682 316.8923  30.0630 10.84994804291287